1 02359U 63014J   08159.47305718 +.00000007 +00000-0 +10000-3 0  9992
2 02359 087.0393 333.2100 1031253 076.3294 295.0133 08.69679460342871
1 02359U 63014J   08160.39322350  .00000007  00000-0  10000-3 0  9996
2 02359 087.0391 333.1085 1031003 075.3821 295.8990 08.69679472342959
1 02359U 63014J   08161.54342965  .00000007  00000-0  10000-3 0  9998
2 02359 087.0412 332.9817 1030480 074.2231 296.9801 08.69679391343059
1 02359U 63014J   08162.57861129  .00000007  00000-0  10000-3 0  9990
2 02359 087.0406 332.8679 1030176 073.1596 297.9570 08.69679206343140
1 02359U 63014J   08163.49877491 +.00000007 +00000-0 +10000-3 0  9991
2 02359 087.0397 332.7665 1029790 072.2153 298.8284 08.69679006343221
1 02359U 63014J   08163.95885588  .00000007  00000-0  10000-3 0  9998
2 02359 087.0396 332.7165 1029563 071.7451 299.2556 08.69678417343264
1 02359U 63014J   08164.53395894 +.00000007 +00000-0 +10000-3 0  9999
2 02359 087.0400 332.6535 1029351 071.1410 299.8200 08.69678638343317
1 02359U 63014J   08165.45411937  .00000007  00000-0  10000-3 0  9998
2 02359 087.0402 332.5523 1029097 070.2013 300.6820 08.69678949343393
1 02359U 63014J   08166.48930023  .00000007  00000-0  10000-3 0  9994
2 02359 087.0404 332.4376 1028462 069.1523 301.6417 08.69678933343484
1 02359U 63014J   08167.40945676 +.00000007 +00000-0 +10000-3 0  9997
2 02359 087.0385 332.3362 1027834 068.2389 302.4657 08.69678866343567
1 02359U 63014J   08167.86953495  .00000007  00000-0  10000-3 0  9995
2 02359 087.0381 332.2861 1027453 067.7647 302.8863 08.69678156343604
1 02359U 63014J   08168.55965588 +.00000007 +00000-0 +10000-3 0  9998
2 02359 087.0370 332.2094 1027074 067.0633 303.5351 08.69678782343668
1 02359U 63014J   08168.90471196  .00000007  00000-0  10000-3 0  9994
2 02359 087.0372 332.1718 1026866 066.6810 303.8683 08.69678727343695
1 02359U 63014J   08169.47981145 +.00000007 +00000-0 +10000-3 0  9997
2 02359 087.0380 332.1092 1026551 066.0905 304.4088 08.69679072343745
1 02359U 63014J   08169.93988831  .00000007  00000-0  10000-3 0  9997
2 02359 087.0373 332.0585 1026268 065.6182 304.8215 08.69678216343789
1 02359U 63014J   08170.51498920 +.00000007 +00000-0 +10000-3 0  9998
2 02359 087.0374 331.9955 1026089 065.0173 305.3720 08.69678019343838
1 02359U 63014J   08170.97506750  .00000007  00000-0  10000-3 0  9999
2 02359 087.0367 331.9447 1025844 064.5313 305.8038 08.69677735343879
1 02359U 63014J   08171.43514725 +.00000007 +00000-0 +10000-3 0  9992
2 02359 087.0373 331.8942 1025532 064.0660 306.2300 08.69677984343917
1 02359U 63014J   08172.35530203  .00000007  00000-0  10000-3 0  9993
2 02359 087.0393 331.7914 1024824 063.1284 307.0671 08.69677826343995
1 02359U 63014J   08172.47031948 +.00000007 +00000-0 +10000-3 0  9998
2 02359 087.0410 331.7782 1024256 063.0284 307.1537 08.69677640344005
1 02359U 63014J   08173.85055109  .00000006  00000-0  10000-3 0  9995
2 02359 087.0404 331.6275 1023491 061.6238 308.4006 08.69677162344124
1 02359U 63014J   08174.88572321  .00000006  00000-0  10000-3 0  9999
2 02359 087.0395 331.5134 1022850 060.5576 309.3333 08.69676083344211
1 02359U 63014J   08174.88572321 +.00000006 +00000-0 +10000-3 0  9999
2 02359 087.0395 331.5134 1022850 060.5576 309.3333 08.69676083344211
1 02359U 63014J   08175.34580480  .00000006  00000-0  10000-3 0  9996
2 02359 087.0416 331.4624 1022273 060.0807 309.7891 08.69677468344254
1 02359U 63014J   08175.80587398 +.00000006 +00000-0 +10000-3 0  9992
2 02359 087.0390 331.4119 1022429 059.6122 310.1566 08.69675697344292
1 02359U 63014J   08176.49599910  .00000006  00000-0  10000-3 0  9991
2 02359 087.0402 331.3351 1020807 058.9127 310.8350 08.69677540344352
1 02359U 63014J   08176.49599910 +.00000006 +00000-0 +10000-3 0  9991
2 02359 087.0402 331.3351 1020807 058.9127 310.8350 08.69677540344352
1 02359U 63014J   08177.41613673 +.00000006 +00000-0 +10000-3 0  9997
2 02359 087.0393 331.2321 1019786 057.9719 311.6209 08.69677839344439
1 02359U 63014J   08178.45130852  .00000006  00000-0  10000-3 0  9995
2 02359 087.0398 331.1190 1019087 056.9010 312.5609 08.69676322344524
1 02359U 63014J   08179.48647474  .00000006  00000-0  10000-3 0  9992
2 02359 087.0384 331.0054 1018802 055.8750 313.4604 08.69677691344615
1 02359U 63014J   08179.94654963  .00000006  00000-0  10000-3 0  9994
2 02359 087.0374 330.9545 1018139 055.3113 313.9370 08.69676422344658
1 02359U 63014J   08180.40662937 +.00000006 +00000-0 +10000-3 0  9997
2 02359 087.0374 330.9042 1018139 054.8311 314.3706 08.69676423344697
1 02359U 63014J   08181.44179974  .00000006  00000-0  10000-3 0  9996
2 02359 087.0370 330.7902 1017246 053.7706 315.3111 08.69677292344786
1 02359U 63014J   08182.47696058  .00000006  00000-0  10000-3 0  9997
2 02359 087.0363 330.6766 1016288 052.7122 316.2134 08.69677398344873
1 02359U 63014J   08182.93703437  .00000006  00000-0  10000-3 0  9998
2 02359 087.0356 330.6259 1016132 052.1695 316.6710 08.69676329344911
1 02359U 63014J   08183.51213197 +.00000006 +00000-0 +10000-3 0  9992
2 02359 087.0357 330.5631 1015706 051.5752 317.2045 08.69676383344961
1 02359U 63014J   08184.31726050  .00000006  00000-0  10000-3 0  9998
2 02359 087.0352 330.4741 1014998 050.7254 317.9343 08.69676343345030
1 02359U 63014J   08184.77733404 +.00000006 +00000-0 +10000-3 0  9999
2 02359 087.0368 330.4236 1014471 050.2569 318.3338 08.69675643345071
1 02359U 63014J   08185.46744498  .00000006  00000-0  10000-3 0  9991
2 02359 087.0362 330.3464 1012460 049.5787 318.9294 08.69676806345132
1 02359U 63014J   08186.50260367  .00000006  00000-0  10000-3 0  9995
2 02359 087.0346 330.2338 1011936 048.5314 319.8105 08.69676403345229
1 02359U 63014J   08187.76780597 +.00000006 +00000-0 +10000-3 0  9996
2 02359 087.0342 330.0936 1011650 047.2073 320.9465 08.69675690345339
1 02359U 63014J   08188.45792425  .00000006  00000-0  10000-3 0  9996
2 02359 087.0358 330.0187 1010537 046.4198 321.6234 08.69673627345392
1 02359U 63014J   08188.45792425 +.00000006 +00000-0 +10000-3 0  9996
2 02359 087.0358 330.0187 1010537 046.4198 321.6234 08.69673627345392
1 02359U 63014J   08189.49309067  .00000006  00000-0  10000-3 0  9997
2 02359 087.0349 329.9037 1009136 045.3467 322.5299 08.69672483345483
1 02359U 63014J   08190.29822225 +.00000006 +00000-0 +10000-3 0  9993
2 02359 087.0332 329.8157 1008898 044.4500 323.3092 08.69673402345559
1 02359U 63014J   08191.33338560  .00000006  00000-0  10000-3 0  9993
2 02359 087.0384 329.7029 1006906 043.5734 323.9806 08.69668373345640
1 02359U 63014J   08191.79347969  .00000006  00000-0  10000-3 0  9996
2 02359 087.0311 329.6491 1006312 043.0344 324.4745 08.69665486345689
1 02359U 63014J   08192.36858268  .00000006  00000-0  10000-3 0  9999
2 02359 087.0357 329.5891 1005905 042.3674 325.0411 08.69663824345734
1 02359U 63014J   08192.82866692  .00000006  00000-0  10000-3 0  9990
2 02359 087.0328 329.5372 1006437 041.7962 325.5395 08.69662976345777
1 02359U 63014J   08194.32392593  .00000006  00000-0  10000-3 0  9991
2 02359 087.0344 329.3744 1004754 040.2323 326.7935 08.69654013345902
1 02359U 63014J   08195.35913696  .00000006  00000-0  10000-3 0  9998
2 02359 087.0334 329.2614 1003374 039.2595 327.6597 08.69651326345999
1 02359U 63014J   08195.47416619 +.00000006 +00000-0 +10000-3 0  9994
2 02359 087.0334 329.2489 1003597 039.1285 327.7935 08.69651106346007
1 02359U 63014J   08195.81923091  .00000005  00000-0  10000-3 0  9998
2 02359 087.0327 329.2106 1003638 038.6094 328.2175 08.69649616346031
1 02359U 63014J   08196.39434374 +.00000005 +00000-0 +10000-3 0  9993
2 02359 087.0333 329.1473 1002221 038.0912 328.6579 08.69647771346081
1 02359U 63014J   08196.85443276  .00000005  00000-0  10000-3 0  9995
2 02359 087.0306 329.0958 1001119 037.5104 329.1372 08.69644483346129
1 02359U 63014J   08197.77461246  .00000005  00000-0  10000-3 0  9994
2 02359 087.0279 328.9936 1001112 036.4892 329.9826 08.69639865346206
1 02359U 63014J   08197.88964497  .00000005  00000-0  10000-3 0  9992
2 02359 087.0280 328.9803 1002493 036.2710 330.1767 08.69637513346218
1 02359U 63014J   08198.46476806 +.00000005 +00000-0 +10000-3 0  9999
2 02359 087.0288 328.9182 1001384 035.7736 330.6039 08.69635594346265
1 02359U 63014J   08199.26993351  .00000005  00000-0  10000-3 0  9997
2 02359 087.0317 328.8304 1001576 034.8559 331.3722 08.69634051346331
1 02359U 63014J   08200.30514929  .00000005  00000-0  10000-3 0  9995
2 02359 087.0331 328.7176 0998666 033.9448 332.1158 08.69629994346426
1 02359U 63014J   08200.42018111  .00000005  00000-0  10000-3 0  9990
2 02359 087.0326 328.7031 0998127 033.7829 332.2621 08.69627098346433
1 02359U 63014J   08201.34037685  .00000005  00000-0  10000-3 0  9999
2 02359 087.0309 328.6036 0996595 032.9054 332.9790 08.69624367346515
1 02359U 63014J   08201.45540864  .00000005  00000-0  10000-3 0  9999
2 02359 087.0288 328.5904 0997167 032.6260 333.2139 08.69620192346520
1 02359U 63014J   08201.80049146  .00000005  00000-0  10000-3 0  9995
2 02359 087.0292 328.5527 0997966 032.1031 333.6607 08.69618165346558
1 02359U 63014J   08202.37562368 +.00000005 +00000-0 +10000-3 0  9994
2 02359 087.0283 328.4899 0997711 031.5421 334.1344 08.69616555346604
1 02359U 63014J   08203.29583079  .00000005  00000-0  10000-3 0  9998
2 02359 087.0266 328.3867 0998100 030.5101 334.9953 08.69615159346687
1 02359U 63014J   08203.41086252  .00000005  00000-0  10000-3 0  9993
2 02359 087.0279 328.3748 0996369 030.4362 335.0468 08.69610831346698
1 02359U 63014J   08204.33107691  .00000005  00000-0  10000-3 0  9996
2 02359 087.0287 328.2746 0995474 029.5176 335.8107 08.69607882346771
1 02359U 63014J   08204.44610950 +.00000005 +00000-0 +10000-3 0  9995
2 02359 087.0271 328.2615 0994686 029.4012 335.9139 08.69606556346785
1 02359U 63014J   08205.36632752  .00000005  00000-0  10000-3 0  9991
2 02359 087.0283 328.1591 0993735 028.4485 336.6954 08.69602594346867
1 02359U 63014J   08206.28654885  .00000005  00000-0  10000-3 0  9994
2 02359 087.0292 328.0597 0992946 027.4822 337.4839 08.69599931346949
